[
  {
    "COMMENT": "GENERATED VIA SPACETRACK.ORG API",
    "ORIGINATOR": "18 SPCS",
    "NORAD_CAT_ID": "46984",
    "OBJECT_NAME": "S6 MICHAEL FREILICH",
    "OBJECT_TYPE": "PAYLOAD",
    "CLASSIFICATION_TYPE": "U",
    "INTLDES": "20086A",
    "EPOCH": "2021-12-12 08:54:14",
    "EPOCH_MICROSECONDS": "133024",
    "MEAN_MOTION": "12.80929758",
    "ECCENTRICITY": "0.0007892",
    "INCLINATION": "66.0431",
    "RA_OF_ASC_NODE": "317.6035",
    "ARG_OF_PERICENTER": "263.4499",
    "MEAN_ANOMALY": "96.5613",
    "EPHEMERIS_TYPE": "0",
    "ELEMENT_SET_NO": "999",
    "REV_AT_EPOCH": "4940",
    "BSTAR": "0",
    "MEAN_MOTION_DOT": "-0.00000061",
    "MEAN_MOTION_DDOT": "0",
    "FILE": "3238022",
    "TLE_LINE0": "0 S6 MICHAEL FREILICH",
    "TLE_LINE1": "1 46984U 20086A   21346.37099691 -.00000061  00000-0  00000+0 0  9994",
    "TLE_LINE2": "2 46984  66.0431 317.6035 0007892 263.4499  96.5613 12.80929758 49409",
    "OBJECT_ID": "2020-086A",
    "OBJECT_NUMBER": "46984",
    "SEMIMAJOR_AXIS": "7715.871",
    "PERIOD": "112.418",
    "APOGEE": "1343.825",
    "PERIGEE": "1331.647",
    "DECAYED": "0"
  },
  {
    "COMMENT": "GENERATED VIA SPACETRACK.ORG API",
    "ORIGINATOR": "18 SPCS",
    "NORAD_CAT_ID": "46984",
    "OBJECT_NAME": "S6 MICHAEL FREILICH",
    "OBJECT_TYPE": "PAYLOAD",
    "CLASSIFICATION_TYPE": "U",
    "INTLDES": "20086A",
    "EPOCH": "2021-12-12 08:54:14",
    "EPOCH_MICROSECONDS": "133024",
    "MEAN_MOTION": "12.80929758",
    "ECCENTRICITY": "0.0007892",
    "INCLINATION": "66.0431",
    "RA_OF_ASC_NODE": "317.6035",
    "ARG_OF_PERICENTER": "263.4499",
    "MEAN_ANOMALY": "96.5613",
    "EPHEMERIS_TYPE": "0",
    "ELEMENT_SET_NO": "999",
    "REV_AT_EPOCH": "4940",
    "BSTAR": "0",
    "MEAN_MOTION_DOT": "-0.00000061",
    "MEAN_MOTION_DDOT": "0",
    "FILE": "3238023",
    "TLE_LINE0": "0 S6 MICHAEL FREILICH",
    "TLE_LINE1": "1 46984U 20086A   21346.37099691 -.00000061  00000-0  00000+0 0  9994",
    "TLE_LINE2": "2 46984  66.0431 317.6035 0007892 263.4499  96.5613 12.80929758 49409",
    "OBJECT_ID": "2020-086A",
    "OBJECT_NUMBER": "46984",
    "SEMIMAJOR_AXIS": "7715.871",
    "PERIOD": "112.418",
    "APOGEE": "1343.825",
    "PERIGEE": "1331.647",
    "DECAYED": "0"
  },
  {
    "COMMENT": "GENERATED VIA SPACETRACK.ORG API",
    "ORIGINATOR": "18 SPCS",
    "NORAD_CAT_ID": "46984",
    "OBJECT_NAME": "S6 MICHAEL FREILICH",
    "OBJECT_TYPE": "PAYLOAD",
    "CLASSIFICATION_TYPE": "U",
    "INTLDES": "20086A",
    "EPOCH": "2021-12-12 14:31:31",
    "EPOCH_MICROSECONDS": "431360",
    "MEAN_MOTION": "12.80929753",
    "ECCENTRICITY": "0.0007895",
    "INCLINATION": "66.0431",
    "RA_OF_ASC_NODE": "317.1171",
    "ARG_OF_PERICENTER": "263.4489",
    "MEAN_ANOMALY": "96.5626",
    "EPHEMERIS_TYPE": "0",
    "ELEMENT_SET_NO": "999",
    "REV_AT_EPOCH": "4943",
    "BSTAR": "0",
    "MEAN_MOTION_DOT": "-0.00000061",
    "MEAN_MOTION_DDOT": "0",
    "FILE": "3238376",
    "TLE_LINE0": "0 S6 MICHAEL FREILICH",
    "TLE_LINE1": "1 46984U 20086A   21346.60522490 -.00000061  00000-0  00000-0 0  9999",
    "TLE_LINE2": "2 46984  66.0431 317.1171 0007895 263.4489  96.5626 12.80929753 49439",
    "OBJECT_ID": "2020-086A",
    "OBJECT_NUMBER": "46984",
    "SEMIMAJOR_AXIS": "7715.871",
    "PERIOD": "112.418",
    "APOGEE": "1343.828",
    "PERIGEE": "1331.644",
    "DECAYED": "0"
  },
  {
    "COMMENT": "GENERATED VIA SPACETRACK.ORG API",
    "ORIGINATOR": "18 SPCS",
    "NORAD_CAT_ID": "46984",
    "OBJECT_NAME": "S6 MICHAEL FREILICH",
    "OBJECT_TYPE": "PAYLOAD",
    "CLASSIFICATION_TYPE": "U",
    "INTLDES": "20086A",
    "EPOCH": "2021-12-13 07:23:23",
    "EPOCH_MICROSECONDS": "293536",
    "MEAN_MOTION": "12.80929772",
    "ECCENTRICITY": "0.0007889",
    "INCLINATION": "66.0433",
    "RA_OF_ASC_NODE": "315.657",
    "ARG_OF_PERICENTER": "263.6049",
    "MEAN_ANOMALY": "96.4068",
    "EPHEMERIS_TYPE": "0",
    "ELEMENT_SET_NO": "999",
    "REV_AT_EPOCH": "4952",
    "BSTAR": "0",
    "MEAN_MOTION_DOT": "-0.00000061",
    "MEAN_MOTION_DDOT": "0",
    "FILE": "3238851",
    "TLE_LINE0": "0 S6 MICHAEL FREILICH",
    "TLE_LINE1": "1 46984U 20086A   21347.30790849 -.00000061  00000-0  00000+0 0  9991",
    "TLE_LINE2": "2 46984  66.0433 315.6570 0007889 263.6049  96.4068 12.80929772 49524",
    "OBJECT_ID": "2020-086A",
    "OBJECT_NUMBER": "46984",
    "SEMIMAJOR_AXIS": "7715.871",
    "PERIOD": "112.418",
    "APOGEE": "1343.823",
    "PERIGEE": "1331.649",
    "DECAYED": "0"
  },
  {
    "COMMENT": "GENERATED VIA SPACETRACK.ORG API",
    "ORIGINATOR": "18 SPCS",
    "NORAD_CAT_ID": "46984",
    "OBJECT_NAME": "S6 MICHAEL FREILICH",
    "OBJECT_TYPE": "PAYLOAD",
    "CLASSIFICATION_TYPE": "U",
    "INTLDES": "20086A",
    "EPOCH": "2021-12-13 07:23:23",
    "EPOCH_MICROSECONDS": "293536",
    "MEAN_MOTION": "12.80929772",
    "ECCENTRICITY": "0.0007889",
    "INCLINATION": "66.0433",
    "RA_OF_ASC_NODE": "315.657",
    "ARG_OF_PERICENTER": "263.6049",
    "MEAN_ANOMALY": "96.4068",
    "EPHEMERIS_TYPE": "0",
    "ELEMENT_SET_NO": "999",
    "REV_AT_EPOCH": "4952",
    "BSTAR": "0",
    "MEAN_MOTION_DOT": "-0.00000061",
    "MEAN_MOTION_DDOT": "0",
    "FILE": "3238870",
    "TLE_LINE0": "0 S6 MICHAEL FREILICH",
    "TLE_LINE1": "1 46984U 20086A   21347.30790849 -.00000061  00000-0  00000+0 0  9991",
    "TLE_LINE2": "2 46984  66.0433 315.6570 0007889 263.6049  96.4068 12.80929772 49524",
    "OBJECT_ID": "2020-086A",
    "OBJECT_NUMBER": "46984",
    "SEMIMAJOR_AXIS": "7715.871",
    "PERIOD": "112.418",
    "APOGEE": "1343.823",
    "PERIGEE": "1331.649",
    "DECAYED": "0"
  },
  {
    "COMMENT": "GENERATED VIA SPACETRACK.ORG API",
    "ORIGINATOR": "18 SPCS",
    "NORAD_CAT_ID": "46984",
    "OBJECT_NAME": "S6 MICHAEL FREILICH",
    "OBJECT_TYPE": "PAYLOAD",
    "CLASSIFICATION_TYPE": "U",
    "INTLDES": "20086A",
    "EPOCH": "2021-12-13 22:22:49",
    "EPOCH_MICROSECONDS": "397088",
    "MEAN_MOTION": "12.80929773",
    "ECCENTRICITY": "0.0007867",
    "INCLINATION": "66.0433",
    "RA_OF_ASC_NODE": "314.3595",
    "ARG_OF_PERICENTER": "263.483",
    "MEAN_ANOMALY": "96.5288",
    "EPHEMERIS_TYPE": "0",
    "ELEMENT_SET_NO": "999",
    "REV_AT_EPOCH": "4960",
    "BSTAR": "0",
    "MEAN_MOTION_DOT": "-0.00000061",
    "MEAN_MOTION_DDOT": "0",
    "FILE": "3239585",
    "TLE_LINE0": "0 S6 MICHAEL FREILICH",
    "TLE_LINE1": "1 46984U 20086A   21347.93251617 -.00000061  00000-0  00000-0 0  9996",
    "TLE_LINE2": "2 46984  66.0433 314.3595 0007867 263.4830  96.5288 12.80929773 49604",
    "OBJECT_ID": "2020-086A",
    "OBJECT_NUMBER": "46984",
    "SEMIMAJOR_AXIS": "7715.871",
    "PERIOD": "112.418",
    "APOGEE": "1343.806",
    "PERIGEE": "1331.666",
    "DECAYED": "0"
  },
  {
    "COMMENT": "GENERATED VIA SPACETRACK.ORG API",
    "ORIGINATOR": "18 SPCS",
    "NORAD_CAT_ID": "46984",
    "OBJECT_NAME": "S6 MICHAEL FREILICH",
    "OBJECT_TYPE": "PAYLOAD",
    "CLASSIFICATION_TYPE": "U",
    "INTLDES": "20086A",
    "EPOCH": "2021-12-14 07:44:58",
    "EPOCH_MICROSECONDS": "212672",
    "MEAN_MOTION": "12.8092975",
    "ECCENTRICITY": "0.0007874",
    "INCLINATION": "66.0427",
    "RA_OF_ASC_NODE": "313.5477",
    "ARG_OF_PERICENTER": "264.0759",
    "MEAN_ANOMALY": "95.9359",
    "EPHEMERIS_TYPE": "0",
    "ELEMENT_SET_NO": "999",
    "REV_AT_EPOCH": "4965",
    "BSTAR": "0",
    "MEAN_MOTION_DOT": "-0.00000061",
    "MEAN_MOTION_DDOT": "0",
    "FILE": "3239982",
    "TLE_LINE0": "0 S6 MICHAEL FREILICH",
    "TLE_LINE1": "1 46984U 20086A   21348.32289598 -.00000061  00000-0  00000+0 0  9998",
    "TLE_LINE2": "2 46984  66.0427 313.5477 0007874 264.0759  95.9359 12.80929750 49654",
    "OBJECT_ID": "2020-086A",
    "OBJECT_NUMBER": "46984",
    "SEMIMAJOR_AXIS": "7715.871",
    "PERIOD": "112.418",
    "APOGEE": "1343.812",
    "PERIGEE": "1331.661",
    "DECAYED": "0"
  },
  {
    "COMMENT": "GENERATED VIA SPACETRACK.ORG API",
    "ORIGINATOR": "18 SPCS",
    "NORAD_CAT_ID": "46984",
    "OBJECT_NAME": "S6 MICHAEL FREILICH",
    "OBJECT_TYPE": "PAYLOAD",
    "CLASSIFICATION_TYPE": "U",
    "INTLDES": "20086A",
    "EPOCH": "2021-12-14 07:44:58",
    "EPOCH_MICROSECONDS": "212672",
    "MEAN_MOTION": "12.8092975",
    "ECCENTRICITY": "0.0007874",
    "INCLINATION": "66.0427",
    "RA_OF_ASC_NODE": "313.5477",
    "ARG_OF_PERICENTER": "264.0759",
    "MEAN_ANOMALY": "95.9359",
    "EPHEMERIS_TYPE": "0",
    "ELEMENT_SET_NO": "999",
    "REV_AT_EPOCH": "4965",
    "BSTAR": "0",
    "MEAN_MOTION_DOT": "-0.00000061",
    "MEAN_MOTION_DDOT": "0",
    "FILE": "3240045",
    "TLE_LINE0": "0 S6 MICHAEL FREILICH",
    "TLE_LINE1": "1 46984U 20086A   21348.32289598 -.00000061  00000-0  00000+0 0  9998",
    "TLE_LINE2": "2 46984  66.0427 313.5477 0007874 264.0759  95.9359 12.80929750 49654",
    "OBJECT_ID": "2020-086A",
    "OBJECT_NUMBER": "46984",
    "SEMIMAJOR_AXIS": "7715.871",
    "PERIOD": "112.418",
    "APOGEE": "1343.812",
    "PERIGEE": "1331.661",
    "DECAYED": "0"
  }
]